{
  "norad_id": 56027,
  "name": "STARLINK-5777",
  "history": [
    {
      "epoch": "2026-04-13T07:15:16.197120Z",
      "apogee_km": 483.96377918024973,
      "perigee_km": 482.1131829295,
      "latitude_deg": 5.7350315310173396e-05,
      "longitude_deg": -100.95602762678455,
      "height_km": 482.84922394773105,
      "semi_major_axis_km": 6861.175481054875,
      "eccentricity": 0.00013486,
      "inclination_deg": 42.9996,
      "raan_deg": 209.3564,
      "arg_perigee_deg": 267.8855,
      "mean_anomaly_deg": 92.1843,
      "mean_motion_rev_day": 15.27583545
    },
    {
      "epoch": "2026-04-14T14:38:25.313280Z",
      "apogee_km": 484.0171120404939,
      "perigee_km": 482.11381447718577,
      "latitude_deg": 1.7331672605410926e-05,
      "longitude_deg": 139.58177532666662,
      "height_km": 482.95137013517996,
      "semi_major_axis_km": 6861.20246325884,
      "eccentricity": 0.0001387,
      "inclination_deg": 43.0015,
      "raan_deg": 201.9712,
      "arg_perigee_deg": 263.4186,
      "mean_anomaly_deg": 96.6508,
      "mean_motion_rev_day": 15.27574534
    },
    {
      "epoch": "2026-04-15T12:36:37.230624Z",
      "apogee_km": 484.0626998661928,
      "perigee_km": 482.1307136790401,
      "latitude_deg": 2.831584230453485e-06,
      "longitude_deg": 163.96013100809623,
      "height_km": 482.96088296942406,
      "semi_major_axis_km": 6861.233706772617,
      "eccentricity": 0.00014079,
      "inclination_deg": 43.0016,
      "raan_deg": 196.8015,
      "arg_perigee_deg": 264.8146,
      "mean_anomaly_deg": 95.2545,
      "mean_motion_rev_day": 15.275641
    },
    {
      "epoch": "2026-04-16T13:43:07.497984Z",
      "apogee_km": 484.1960752370769,
      "perigee_km": 481.9085547194627,
      "latitude_deg": 1.7900685945159294e-05,
      "longitude_deg": 140.3935694492353,
      "height_km": 482.99896338437816,
      "semi_major_axis_km": 6861.189314978269,
      "eccentricity": 0.0001667,
      "inclination_deg": 43.0015,
      "raan_deg": 190.8922,
      "arg_perigee_deg": 261.4724,
      "mean_anomaly_deg": 98.5939,
      "mean_motion_rev_day": 15.27578925
    },
    {
      "epoch": "2026-04-17T13:15:27.574272Z",
      "apogee_km": 484.4553837091453,
      "perigee_km": 481.51360925631343,
      "latitude_deg": -2.3281464740405765e-05,
      "longitude_deg": 140.80186709459105,
      "height_km": 483.1630157354474,
      "semi_major_axis_km": 6861.121496482729,
      "eccentricity": 0.00021438,
      "inclination_deg": 43.0,
      "raan_deg": 185.3509,
      "arg_perigee_deg": 254.1651,
      "mean_anomaly_deg": 105.8964,
      "mean_motion_rev_day": 15.27601574
    },
    {
      "epoch": "2026-04-18T12:47:44.153088Z",
      "apogee_km": 484.473108709155,
      "perigee_km": 481.004249965682,
      "latitude_deg": 1.454570538292411e-05,
      "longitude_deg": 141.22796076026748,
      "height_km": 482.91463788069154,
      "semi_major_axis_km": 6860.875679337419,
      "eccentricity": 0.0002528,
      "inclination_deg": 43.0016,
      "raan_deg": 179.8127,
      "arg_perigee_deg": 256.7224,
      "mean_anomaly_deg": 103.3346,
      "mean_motion_rev_day": 15.27683673
    },
    {
      "epoch": "2026-04-19T13:54:15.019200Z",
      "apogee_km": 484.1484927386782,
      "perigee_km": 481.68811830611776,
      "latitude_deg": 5.3584520071776105e-05,
      "longitude_deg": 117.6608203670034,
      "height_km": 483.0918183115923,
      "semi_major_axis_km": 6861.055305522397,
      "eccentricity": 0.0001793,
      "inclination_deg": 43.0023,
      "raan_deg": 173.9053,
      "arg_perigee_deg": 251.2033,
      "mean_anomaly_deg": 108.8625,
      "mean_motion_rev_day": 15.2762368
    },
    {
      "epoch": "2026-04-20T10:18:21.232224Z",
      "apogee_km": 484.0108562306759,
      "perigee_km": 482.13376658726156,
      "latitude_deg": -7.010191794336824e-07,
      "longitude_deg": 165.99910429275656,
      "height_km": 482.8862825051058,
      "semi_major_axis_km": 6861.2093114089685,
      "eccentricity": 0.00013679,
      "inclination_deg": 43.0024,
      "raan_deg": 169.1074,
      "arg_perigee_deg": 267.7386,
      "mean_anomaly_deg": 92.3309,
      "mean_motion_rev_day": 15.27572247
    },
    {
      "epoch": "2026-04-21T14:33:10.323072Z",
      "apogee_km": 484.2373656663085,
      "perigee_km": 481.85104684277303,
      "latitude_deg": -6.310759635352574e-05,
      "longitude_deg": 94.48572787201472,
      "height_km": 483.2677261610827,
      "semi_major_axis_km": 6861.1812062545405,
      "eccentricity": 0.0001739,
      "inclination_deg": 43.0024,
      "raan_deg": 162.4587,
      "arg_perigee_deg": 248.0275,
      "mean_anomaly_deg": 112.0391,
      "mean_motion_rev_day": 15.27581633
    },
    {
      "epoch": "2026-04-22T14:05:31.286688Z",
      "apogee_km": 483.7493845650897,
      "perigee_km": 482.4169356100001,
      "latitude_deg": 3.185462976603665e-05,
      "longitude_deg": 94.8933594691928,
      "height_km": 483.0397851986568,
      "semi_major_axis_km": 6861.220160087544,
      "eccentricity": 9.71e-05,
      "inclination_deg": 43.0021,
      "raan_deg": 156.9203,
      "arg_perigee_deg": 254.3146,
      "mean_anomaly_deg": 105.7599,
      "mean_motion_rev_day": 15.27568624
    },
    {
      "epoch": "2026-04-23T10:29:33.080352Z",
      "apogee_km": 484.1075146874582,
      "perigee_km": 482.03350888079603,
      "latitude_deg": -1.4588736872753897e-05,
      "longitude_deg": 143.24731587230156,
      "height_km": 483.11169813326256,
      "semi_major_axis_km": 6861.207511784127,
      "eccentricity": 0.00015114,
      "inclination_deg": 43.0032,
      "raan_deg": 152.1196,
      "arg_perigee_deg": 255.2449,
      "mean_anomaly_deg": 104.8235,
      "mean_motion_rev_day": 15.27572848
    }
  ]
}